IRIDIUM 166             
1 43570U 18061B   25195.61539842  .00000045  00000+0  88285-5 0  9999
2 43570  86.3982 197.7812 0002025  90.0513 270.0915 14.34217896365013
IRIDIUM 158             
1 43571U 18061C   25195.72322230  .00000024  00000+0  15720-5 0  9994
2 43571  86.3981 197.7460 0002325  84.8205 275.3257 14.34217784364993
IRIDIUM 165             
1 43572U 18061D   25195.95790715  .00000103  00000+0  29557-4 0  9997
2 43572  86.3984 197.6878 0002206  92.0257 268.1192 14.34217906365057
IRIDIUM 155             
1 43573U 18061E   25196.54775995 -.00000012  00000+0 -11393-4 0  9997
2 43573  86.3985 197.3277 0002034  81.9135 278.2291 14.34217399365115
IRIDIUM 154             
1 43574U 18061F   25196.24965871 -.00000002  00000+0 -78170-5 0  9995
2 43574  86.3990 197.5689 0002170  89.0839 271.0605 14.34217361365111
IRIDIUM 163             
1 43575U 18061G   25195.95155647 -.00000018  00000+0 -13527-4 0  9996
2 43575  86.3986 197.6194 0002314  86.1848 273.9612 14.34217514365048
IRIDIUM 156             
1 43576U 18061H   25196.55410216  .00000006  00000+0 -48468-5 0  9999
2 43576  86.3987 197.3747 0001883  83.5175 276.6235 14.34217636365119
IRIDIUM 164             
1 43577U 18061J   25196.25600027  .00000028  00000+0  30488-5 0  9994
2 43577  86.3983 197.5340 0002173  94.4859 265.6585 14.34217891365120
